CCSDS_OMM_VERS = 2.0
CREATION_DATE  = 
ORIGINATOR     = 

OBJECT_NAME    = E-KAGAKU-1
OBJECT_ID      = 1998-067XQ
CENTER_NAME    = EARTH
REF_FRAME      = TEME
TIME_SYSTEM    = UTC
MEAN_ELEMENT_THEORY = SGP/SGP4

EPOCH          = 2026-03-15T14:04:26.107392
MEAN_MOTION    = 15.83003357
ECCENTRICITY   = .00055841
INCLINATION    = 51.6233
RA_OF_ASC_NODE = 26.7331
ARG_OF_PERICENTER = 115.3994
MEAN_ANOMALY   = 244.7588

EPHEMERIS_TYPE = 0
CLASSIFICATION_TYPE = U
NORAD_CAT_ID   = 65943
ELEMENT_SET_NO = 999
REV_AT_EPOCH   = 2443
BSTAR          = .9986022E-3
MEAN_MOTION_DOT = .223201E-2
MEAN_MOTION_DDOT = 0

CCSDS_OMM_VERS = 2.0
CREATION_DATE  = 
ORIGINATOR     = 

OBJECT_NAME    = HRC MONOBLOCK CAMERA
OBJECT_ID      = 1998-067XR
CENTER_NAME    = EARTH
REF_FRAME      = TEME
TIME_SYSTEM    = UTC
MEAN_ELEMENT_THEORY = SGP/SGP4

EPOCH          = 2026-03-15T14:01:17.304384
MEAN_MOTION    = 15.62895855
ECCENTRICITY   = .00038489
INCLINATION    = 51.6283
RA_OF_ASC_NODE = 35.7678
ARG_OF_PERICENTER = 118.5533
MEAN_ANOMALY   = 241.5849

EPHEMERIS_TYPE = 0
CLASSIFICATION_TYPE = U
NORAD_CAT_ID   = 66052
ELEMENT_SET_NO = 999
REV_AT_EPOCH   = 2331
BSTAR          = .54476782E-3
MEAN_MOTION_DOT = .50012E-3
MEAN_MOTION_DDOT = 0

CCSDS_OMM_VERS = 2.0
CREATION_DATE  = 
ORIGINATOR     = 

OBJECT_NAME    = HTV-X1
OBJECT_ID      = 2025-241A
CENTER_NAME    = EARTH
REF_FRAME      = TEME
TIME_SYSTEM    = UTC
MEAN_ELEMENT_THEORY = SGP/SGP4

EPOCH          = 2026-03-14T08:15:41.723424
MEAN_MOTION    = 15.22910308
ECCENTRICITY   = .00057421
INCLINATION    = 51.6357
RA_OF_ASC_NODE = 50.7100
ARG_OF_PERICENTER = 187.4106
MEAN_ANOMALY   = 172.6788

EPHEMERIS_TYPE = 0
CLASSIFICATION_TYPE = U
NORAD_CAT_ID   = 66174
ELEMENT_SET_NO = 999
REV_AT_EPOCH   = 2166
BSTAR          = .58534113E-3
MEAN_MOTION_DOT = .13614E-3
MEAN_MOTION_DDOT = 0

CCSDS_OMM_VERS = 2.0
CREATION_DATE  = 
ORIGINATOR     = 

OBJECT_NAME    = SZ-21 MODULE
OBJECT_ID      = 2025-246C
CENTER_NAME    = EARTH
REF_FRAME      = TEME
TIME_SYSTEM    = UTC
MEAN_ELEMENT_THEORY = SGP/SGP4

EPOCH          = 2026-03-15T14:40:57.612288
MEAN_MOTION    = 15.69044572
ECCENTRICITY   = .00008196
INCLINATION    = 41.4740
RA_OF_ASC_NODE = 166.8918
ARG_OF_PERICENTER = 310.4718
MEAN_ANOMALY   = 49.6052

EPHEMERIS_TYPE = 0
CLASSIFICATION_TYPE = U
NORAD_CAT_ID   = 66515
ELEMENT_SET_NO = 999
REV_AT_EPOCH   = 1900
BSTAR          = .29227235E-3
MEAN_MOTION_DOT = .34609E-3
MEAN_MOTION_DDOT = 0

CCSDS_OMM_VERS = 2.0
CREATION_DATE  = 
ORIGINATOR     = 

OBJECT_NAME    = SHENZHOU-22
OBJECT_ID      = 2025-272A
CENTER_NAME    = EARTH
REF_FRAME      = TEME
TIME_SYSTEM    = UTC
MEAN_ELEMENT_THEORY = SGP/SGP4

EPOCH          = 2026-03-14T00:03:53.258400
MEAN_MOTION    = 15.60904690
ECCENTRICITY   = .0006689
INCLINATION    = 41.4663
RA_OF_ASC_NODE = 181.9138
ARG_OF_PERICENTER = 299.3968
MEAN_ANOMALY   = 60.6202

EPHEMERIS_TYPE = 0
CLASSIFICATION_TYPE = U
NORAD_CAT_ID   = 66645
ELEMENT_SET_NO = 999
REV_AT_EPOCH   = 26752
BSTAR          = .34787289E-3
MEAN_MOTION_DOT = .29757E-3
MEAN_MOTION_DDOT = 0

CCSDS_OMM_VERS = 2.0
CREATION_DATE  = 
ORIGINATOR     = 

OBJECT_NAME    = SOYUZ-MS 28
OBJECT_ID      = 2025-275A
CENTER_NAME    = EARTH
REF_FRAME      = TEME
TIME_SYSTEM    = UTC
MEAN_ELEMENT_THEORY = SGP/SGP4

EPOCH          = 2026-03-15T06:10:05.524032
MEAN_MOTION    = 15.48289699
ECCENTRICITY   = .00063497
INCLINATION    = 51.6330
RA_OF_ASC_NODE = 44.8327
ARG_OF_PERICENTER = 192.8038
MEAN_ANOMALY   = 167.2790

EPHEMERIS_TYPE = 0
CLASSIFICATION_TYPE = U
NORAD_CAT_ID   = 66664
ELEMENT_SET_NO = 999
REV_AT_EPOCH   = 55452
BSTAR          = .18620385E-3
MEAN_MOTION_DOT = .9576E-4
MEAN_MOTION_DDOT = 0

CCSDS_OMM_VERS = 2.0
CREATION_DATE  = 
ORIGINATOR     = 

OBJECT_NAME    = DUPLEX
OBJECT_ID      = 1998-067XS
CENTER_NAME    = EARTH
REF_FRAME      = TEME
TIME_SYSTEM    = UTC
MEAN_ELEMENT_THEORY = SGP/SGP4

EPOCH          = 2026-03-15T14:55:06.458592
MEAN_MOTION    = 15.56634012
ECCENTRICITY   = .00027941
INCLINATION    = 51.6294
RA_OF_ASC_NODE = 39.7700
ARG_OF_PERICENTER = 138.5108
MEAN_ANOMALY   = 221.6097

EPHEMERIS_TYPE = 0
CLASSIFICATION_TYPE = U
NORAD_CAT_ID   = 66906
ELEMENT_SET_NO = 999
REV_AT_EPOCH   = 1605
BSTAR          = .39788089E-3
MEAN_MOTION_DOT = .28497E-3
MEAN_MOTION_DDOT = 0

CCSDS_OMM_VERS = 2.0
CREATION_DATE  = 
ORIGINATOR     = 

OBJECT_NAME    = ISS OBJECT XT
OBJECT_ID      = 1998-067XT
CENTER_NAME    = EARTH
REF_FRAME      = TEME
TIME_SYSTEM    = UTC
MEAN_ELEMENT_THEORY = SGP/SGP4

EPOCH          = 2026-03-15T01:21:01.873152
MEAN_MOTION    = 15.71174897
ECCENTRICITY   = .00046884
INCLINATION    = 51.6247
RA_OF_ASC_NODE = 38.2251
ARG_OF_PERICENTER = 115.4311
MEAN_ANOMALY   = 244.7173

EPHEMERIS_TYPE = 0
CLASSIFICATION_TYPE = U
NORAD_CAT_ID   = 66907
ELEMENT_SET_NO = 999
REV_AT_EPOCH   = 1602
BSTAR          = .15332922E-2
MEAN_MOTION_DOT = .202137E-2
MEAN_MOTION_DDOT = 0

CCSDS_OMM_VERS = 2.0
CREATION_DATE  = 
ORIGINATOR     = 

OBJECT_NAME    = ISS OBJECT XU
OBJECT_ID      = 1998-067XU
CENTER_NAME    = EARTH
REF_FRAME      = TEME
TIME_SYSTEM    = UTC
MEAN_ELEMENT_THEORY = SGP/SGP4

EPOCH          = 2026-03-15T01:17:47.256288
MEAN_MOTION    = 15.71313389
ECCENTRICITY   = .00049873
INCLINATION    = 51.6248
RA_OF_ASC_NODE = 38.2054
ARG_OF_PERICENTER = 118.2627
MEAN_ANOMALY   = 241.8875

EPHEMERIS_TYPE = 0
CLASSIFICATION_TYPE = U
NORAD_CAT_ID   = 66908
ELEMENT_SET_NO = 999
REV_AT_EPOCH   = 1602
BSTAR          = .15284504E-2
MEAN_MOTION_DOT = .202702E-2
MEAN_MOTION_DDOT = 0

CCSDS_OMM_VERS = 2.0
CREATION_DATE  = 
ORIGINATOR     = 

OBJECT_NAME    = SILVERSAT
OBJECT_ID      = 1998-067XV
CENTER_NAME    = EARTH
REF_FRAME      = TEME
TIME_SYSTEM    = UTC
MEAN_ELEMENT_THEORY = SGP/SGP4

EPOCH          = 2026-03-15T04:06:59.070528
MEAN_MOTION    = 15.74772085
ECCENTRICITY   = .00054443
INCLINATION    = 51.6239
RA_OF_ASC_NODE = 36.7379
ARG_OF_PERICENTER = 117.7755
MEAN_ANOMALY   = 242.3797

EPHEMERIS_TYPE = 0
CLASSIFICATION_TYPE = U
NORAD_CAT_ID   = 66909
ELEMENT_SET_NO = 999
REV_AT_EPOCH   = 1605
BSTAR          = .171494E-2
MEAN_MOTION_DOT = .26581E-2
MEAN_MOTION_DDOT = 0

CCSDS_OMM_VERS = 2.0
CREATION_DATE  = 
ORIGINATOR     = 

OBJECT_NAME    = ISS OBJECT XW
OBJECT_ID      = 1998-067XW
CENTER_NAME    = EARTH
REF_FRAME      = TEME
TIME_SYSTEM    = UTC
MEAN_ELEMENT_THEORY = SGP/SGP4

EPOCH          = 2026-03-15T04:20:34.782432
MEAN_MOTION    = 15.70370803
ECCENTRICITY   = .00053536
INCLINATION    = 51.6239
RA_OF_ASC_NODE = 37.5499
ARG_OF_PERICENTER = 120.8061
MEAN_ANOMALY   = 239.3464

EPHEMERIS_TYPE = 0
CLASSIFICATION_TYPE = U
NORAD_CAT_ID   = 66910
ELEMENT_SET_NO = 999
REV_AT_EPOCH   = 1604
BSTAR          = .13629257E-2
MEAN_MOTION_DOT = .173075E-2
MEAN_MOTION_DDOT = 0

CCSDS_OMM_VERS = 2.0
CREATION_DATE  = 
ORIGINATOR     = 

OBJECT_NAME    = ISS OBJECT XX
OBJECT_ID      = 1998-067XX
CENTER_NAME    = EARTH
REF_FRAME      = TEME
TIME_SYSTEM    = UTC
MEAN_ELEMENT_THEORY = SGP/SGP4

EPOCH          = 2026-03-15T14:23:15.742464
MEAN_MOTION    = 15.78906967
ECCENTRICITY   = .00070094
INCLINATION    = 51.6208
RA_OF_ASC_NODE = 33.5717
ARG_OF_PERICENTER = 124.4751
MEAN_ANOMALY   = 235.6913

EPHEMERIS_TYPE = 0
CLASSIFICATION_TYPE = U
NORAD_CAT_ID   = 66911
ELEMENT_SET_NO = 999
REV_AT_EPOCH   = 1612
BSTAR          = .15333743E-2
MEAN_MOTION_DOT = .286223E-2
MEAN_MOTION_DDOT = 0

